GLOBALSTAR M084         
1 38040U 11080A   24359.93511595 -.00000075  00000+0  15993-3 0  9998
2 38040  51.9987 218.9612 0001257  66.6227 306.6969 12.62272876600669
GLOBALSTAR M080         
1 38041U 11080B   24359.90898942 -.00000079  00000+0  14076-3 0  9995
2 38041  52.0040 220.5886 0001193  52.0172 321.1535 12.62259756600787
GLOBALSTAR M082         
1 38042U 11080C   24359.85976257 -.00000078  00000+0  14514-3 0  9992
2 38042  52.0046 176.1634 0001313 114.3644 335.8769 12.62271629601483
GLOBALSTAR M092         
1 38043U 11080D   24359.90242751 -.00000084  00000+0  11219-3 0  9990
2 38043  52.0083 266.4022 0000942  64.8919 339.3525 12.62270964599947
GLOBALSTAR M090         
1 38044U 11080E   24359.90043687 -.00000079  00000+0  13742-3 0  9995
2 38044  51.9859 170.0717 0001088 105.0415  50.1903 12.62265314601607
GLOBALSTAR M086         
1 38045U 11080F   24359.91815830 -.00000072  00000+0  17736-3 0  9994
2 38045  51.9869 170.5550 0000381  49.6319  66.6278 12.62265117601552
GLOBALSTAR M097         
1 39072U 13005A   24359.91936251 -.00000104  00000+0 -24752-5 0  9990
2 39072  52.0053  84.9225 0000596 138.2387 221.8525 12.62268247548800
GLOBALSTAR M093         
1 39073U 13005B   24359.57554490 -.00000095  00000+0  48123-4 0  9999
2 39073  51.9819  79.5467 0000655 147.0856 213.0051 12.62277465548711
